{
    "status": "success",
    "data": [
        {
            "id": 1,
            "nameAR": "وسط المدينة",
            "nameEN": "Downtown",
            "nameFR": "Center Ville",
            "lang": 6.6222383,
            "lat": 36.2844496,
            "line": 1 , 
            "interstation" : [
                {"lat":6.78,"long":36.40} ,
                {"lat":6.82,"long":36.50} ,
                {"lat":6.70,"long":36.7}
             ]
        },
        {
            "id": 2,
            "nameAR": "حي الفج",
            "nameEN": "El Fedj Neighborhood",
            "nameFR": "Cité El Fedj",
            "lang": 6.6122414,
            "lat": 36.3537695,
            "line": 1
        },
        {
            "id": 3,
            "nameAR": "جنان الزيتون",
            "nameEN": "Djenane Zitoune",
            "nameFR": "Djenane Zitoune",
            "lang": 6.6129427,
            "lat": 36.3503609,
            "line": 1
        },
        {
            "id": 4,
            "nameAR": "جامعة قسنطينة 1",
            "nameEN": "Constantine 1 University",
            "nameFR": "Université de Constantine 1 ",
            "lang": 6.6164336,
            "lat": 36.3443298,
            "line": 1
        },
        {
            "id": 5,
            "nameAR": "منتوري",
            "nameEN": "Mentouri",
            "nameFR": "Mentouri",
            "lang": 6.6158633,
            "lat": 36.3327333,
            "line": 1
        },
        {
            "id": 6,
            "nameAR": "زرزارة",
            "nameEN": "Zarzara",
            "nameFR": "Zarzara",
            "lang": 6.6187879,
            "lat": 36.3284481,
            "line": 1
        },
        {
            "id": 7,
            "nameAR": "حي خزندار (DNC)",
            "nameEN": "Khaznadar Neighborhood (DNC)",
            "nameFR": "Cité Khaznadar (DNC)",
            "lang": 6.6207302,
            "lat": 36.3233358,
            "line": 1
        },
        {
            "id": 8,
            "nameAR": "الكاليتوس",
            "nameEN": "Caletus",
            "nameFR": "Caletus",
            "lang": 6.6175333,
            "lat": 36.3190504,
            "line": 1
        },
        {
            "id": 9,
            "nameAR": "زواغي سليمان",
            "nameEN": "Zouaghi Sliman",
            "nameFR": "Zouaghi Sliman",
            "lang": 6.6191675,
            "lat": 36.3076815,
            "line": 1
        },
        {
            "id": 10,
            "nameAR": "حي صوناتيبا",
            "nameEN": "Sonatiba Neighborhood",
            "nameFR": "Cité Sonatiba",
            "lang": 6.616841,
            "lat": 36.3036073,
            "line": 1
        },
        {
            "id": 11,
            "nameAR": "زينيت",
            "nameEN": "Zenith",
            "nameFR": "Zenith",
            "lang": 6.6171783,
            "lat": 36.2955561,
            "line": 1
        },
        {
            "id": 12,
            "nameAR": "المطار القديم",
            "nameEN": "Airport - Old terminal",
            "nameFR": "Aéroport - Ancien aérogare",
            "lang": 6.6191373,
            "lat": 36.2866744,
            "line": 1
        },
        {
            "id": 13,
            "nameAR": "المطار الجديد",
            "nameEN": "Airport - New terminal",
            "nameFR": "Aéroport - Nouvel aérogare",
            "lang": 6.622311,
            "lat": 36.2844332,
            "line": 1
        }
    ]
}